0 CZ-4 DEB
1 26168U 99057BE  13282.43507159  .00000216  00000-0  89637-4 0  1384
2 26168 098.4718 221.5053 0104383 286.8844 211.9381 14.33168704709647
0 CZ-4 DEB
1 26168U 99057BE  13287.09854292  .00000225  00000-0  92504-4 0  1404
2 26168 098.4731 226.0691 0104355 272.8999 152.8568 14.33170904710316
0 CZ-4 DEB
1 26168U 99057BE  13289.41814139  .00000232  00000-0  95069-4 0  1416
2 26168 098.4737 228.3392 0104412 265.9419 240.7155 14.33173095710648
0 CZ-4 DEB
1 26168U 99057BE  13291.44156310  .00000258  00000-0  10391-3 0  1425
2 26168 098.4740 230.3198 0104468 259.8686 240.4814 14.33174258710931
0 CZ-4 DEB
1 26168U 99057BE  13293.46196116  .00000299  00000-0  11784-3 0  1430
2 26168 098.4740 232.2977 0104489 253.8105 224.6501 14.33175525711228
0 CZ-4 DEB
1 26168U 99057BE  13295.82299475  .00000297  00000-0  11718-3 0  1440
2 26168 098.4741 234.6093 0104586 246.7525 166.3056 14.33177115711560
